*******************************************************************************
JPL/HORIZONS              704 Interamnia (A910 TC)         2020-Jun-22 09:25:57
Rec #:     704 (+COV) Soln.date: 2020-May-20_01:11:17   # obs: 4781 (1910-2020)
 
IAU76/J2000 helio. ecliptic osc. elements (au, days, deg., period=Julian yrs):
 
  EPOCH=  2452546.5 ! 2002-Sep-29.00 (TDB)         Residual RMS= .26272
   EC= .1463464470384809   QR= 2.61602122951928    TP= 2452185.9692596658
   OM= 280.6575290838837   W=  95.0111193239823    IN= 17.3255342939766
   A= 3.064499902148483    MA= 66.23796121633083   ADIST= 3.512978574777685
   PER= 5.36473            N= .183723472           ANGMOM= .029789281
   DAN= 3.0377             DDN= 2.96102            L= 15.9055184
   B= 17.2572296           MOID= 1.68818998        TP= 2001-Oct-03.4692596658
 
Asteroid physical parameters (km, seconds, rotational period in hours):
   GM= 5.                  RAD= 153.1565           ROTPER= 8.727
   H= 6.4                  G= -.020                B-V= .645
                           ALBEDO= .078            STYP= B
 
ASTEROID comments: 
1: soln ref.= JPL#142, OCC=0
2: source=ORB
*******************************************************************************
 
 
*******************************************************************************
Ephemeris / WWW_USER Mon Jun 22 09:25:57 2020 Pasadena, USA      / Horizons
*******************************************************************************
Target body name: 704 Interamnia (A910 TC)        {source: JPL#142}
Center body name: Solar System Barycenter (0)     {source: DE431}
Center-site name: BODY CENTER
*******************************************************************************
Start time      : A.D. 1969-Jun-28 00:00:00.0000 TDB
Stop  time      : A.D. 2071-May-04 00:00:00.0000 TDB
Step-size       : 7200 minutes
*******************************************************************************
Center geodetic : 0.00000000,0.00000000,0.0000000 {E-lon(deg),Lat(deg),Alt(km)}
Center cylindric: 0.00000000,0.00000000,0.0000000 {E-lon(deg),Dxy(km),Dz(km)}
Center radii    : (undefined)                                                  
Small perturbers: Yes                             {source: SB431-N16}
Output units    : AU-D
Output type     : GEOMETRIC cartesian states
Output format   : 2 (position and velocity)
Reference frame : Ecliptic of J2000.0
*******************************************************************************
Initial IAU76/J2000 heliocentric ecliptic osculating elements (au, days, deg.):
  EPOCH=  2452546.5 ! 2002-Sep-29.00 (TDB)         Residual RMS= .26272        
   EC= .1463464470384809   QR= 2.61602122951928    TP= 2452185.9692596658      
   OM= 280.6575290838837   W=  95.0111193239823    IN= 17.3255342939766        
  Equivalent ICRF heliocentric equatorial cartesian coordinates (au, au/d):
   X=-4.276455024153337E-01  Y= 2.656811365318994E+00  Z= 1.192066805394195E+00
  VX=-9.775234776110819E-03 VY= 1.245176663762637E-03 VZ=-2.722773796184213E-03
Asteroid physical parameters (km, seconds, rotational period in hours):        
   GM= 5.                  RAD= 153.1565           ROTPER= 8.727               
   H= 6.4                  G= -.020                B-V= .645                   
                           ALBEDO= .078            STYP= B                     
*******************************************************************************
            JDTDB,            Calendar Date (TDB),        delta-T,                      X,                      Y,                      Z,                     VX,                     VY,                     VZ,
******************************************************************************************************************************************************************************************************************
$$SOE
2471200.500000000, A.D. 2053-Oct-25 00:00:00.0000,      69.182426, -5.637579039737451E-01, -3.137017913386658E+00, -3.341585895138597E-01,  8.947369265515441E-03, -5.716979822343089E-04,  2.724170062769535E-03,
2471205.500000000, A.D. 2053-Oct-30 00:00:00.0000,      69.182479, -5.189596086332704E-01, -3.139523842912697E+00, -3.205006951729832E-01,  8.971638084274048E-03, -4.305115693497398E-04,  2.738900168987351E-03,
2471210.500000000, A.D. 2053-Nov-04 00:00:00.0000,      69.182544, -4.740446541800595E-01, -3.141321421030635E+00, -3.067704707343812E-01,  8.994028266041846E-03, -2.883603504988400E-04,  2.753100525432862E-03,
2471215.500000000, A.D. 2053-Nov-09 00:00:00.0000,      69.182621, -4.290225036540921E-01, -3.142405868282401E+00, -2.929705886812332E-01,  9.014511831836245E-03, -1.452622749633500E-04,  2.766761620860357E-03,
2471220.500000000, A.D. 2053-Nov-14 00:00:00.0000,      69.182710, -3.839027605363817E-01, -3.142772496783641E+00, -2.791037693140700E-01,  9.033060585952836E-03, -1.236026694535924E-06,  2.779873839912005E-03,
2471225.500000000, A.D. 2053-Nov-19 00:00:00.0000,      69.182807, -3.386951698059076E-01, -3.142416713953635E+00, -2.651727812660977E-01,  9.049646126786399E-03,  1.436989529829613E-04,  2.792427465251009E-03,
2471230.500000000, A.D. 2053-Nov-24 00:00:00.0000,      69.182912, -2.934096189402474E-01, -3.141334026359920E+00, -2.511804420072725E-01,  9.064239858523436E-03,  2.895224421928387E-04,  2.804412679929006E-03,
2471235.500000000, A.D. 2053-Nov-29 00:00:00.0000,      69.183025, -2.480561388555926E-01, -3.139520043679770E+00, -2.371296183358893E-01,  9.076813003699041E-03,  4.362134149685498E-04,  2.815819570021784E-03,
2471240.500000000, A.D. 2053-Dec-04 00:00:00.0000,      69.183146, -2.026449047817175E-01, -3.136970482780075E+00, -2.230232268562739E-01,  9.087336616669675E-03,  5.837500174425788E-04,  2.826638127554129E-03,
2471245.500000000, A.D. 2053-Dec-09 00:00:00.0000,      69.183275, -1.571862370671891E-01, -3.133681171916841E+00, -2.088642344410938E-01,  9.095781598050299E-03,  7.321095438140177E-04,  2.836858253728424E-03,
2471250.500000000, A.D. 2053-Dec-14 00:00:00.0000,      69.183410, -1.116906019098991E-01, -3.129648055055327E+00, -1.946556586767423E-01,  9.102118710155494E-03,  8.812684121346274E-04,  2.846469762469673E-03,
2471255.500000000, A.D. 2053-Dec-19 00:00:00.0000,      69.183549, -6.616861200778479E-02, -3.124867196311594E+00, -1.804005682901827E-01,  9.106318593492254E-03,  1.031202139966094E-03,  2.855462384298251E-03,
2471260.500000000, A.D. 2053-Dec-24 00:00:00.0000,      69.183690, -2.063102712432052E-02, -3.119334784515992E+00, -1.661020835555920E-01,  9.108351784371204E-03,  1.181885319955854E-03,  2.863825770537789E-03,
2471265.500000000, A.D. 2053-Dec-29 00:00:00.0000,      69.183832,  2.491124543700533E-02, -3.113047137898921E+00, -1.517633766791184E-01,  9.108188733714424E-03,  1.333291595349208E-03,  2.871549497862601E-03,
2471270.500000000, A.D. 2054-Jan-03 00:00:00.0000,      69.183977,  7.044715045538318E-02, -3.106000708899228E+00, -1.373876721600397E-01,  9.105799827122885E-03,  1.485393635417788E-03,  2.878623073191812E-03,
2471275.500000000, A.D. 2054-Jan-08 00:00:00.0000,      69.184123,  1.159654845189331E-01, -3.098192089095730E+00, -1.229782471265552E-01,  9.101155406235146E-03,  1.638163110779379E-03,  2.885035938944530E-03,
2471280.500000000, A.D. 2054-Jan-13 00:00:00.0000,      69.184269,  1.614548958609802E-01, -3.089618014262419E+00, -1.085384316443547E-01,  9.094225791377137E-03,  1.791570668606210E-03,  2.890777478678878E-03,
2471285.500000000, A.D. 2054-Jan-18 00:00:00.0000,      69.184411,  2.069038843128106E-01, -3.080275369547831E+00, -9.407160899598048E-02,  9.084981305506456E-03,  1.945585907760918E-03,  2.895837023138692E-03,
2471290.500000000, A.D. 2054-Jan-23 00:00:00.0000,      69.184549,  2.523008013793977E-01, -3.070161194778792E+00, -7.958121592888734E-02,  9.073392299456539E-03,  2.100177353926626E-03,  2.900203856731392E-03,
2471295.500000000, A.D. 2054-Jan-28 00:00:00.0000,      69.184683,  2.976338504446184E-01, -3.059272689888293E+00, -6.507074286999741E-02,  9.059429178490425E-03,  2.255312434839902E-03,  2.903867224456414E-03,
2471300.500000000, A.D. 2054-Feb-02 00:00:00.0000,      69.184812,  3.428910871125537E-01, -3.047607220466579E+00, -5.054373410445509E-02,  9.043062430191399E-03,  2.410957455826461E-03,  2.906816339295037E-03,
2471305.500000000, A.D. 2054-Feb-07 00:00:00.0000,      69.184936,  3.880604196918320E-01, -3.035162323433334E+00, -3.600378791629293E-02,  9.024262653820590E-03,  2.567077575830795E-03,  2.909040390055513E-03,
2471310.500000000, A.D. 2054-Feb-12 00:00:00.0000,      69.185054,  4.331296098307856E-01, -3.021935712828564E+00, -2.145455668874273E-02,  9.003000591303118E-03,  2.723636783885663E-03,  2.910528549671617E-03,
2471315.500000000, A.D. 2054-Feb-17 00:00:00.0000,      69.185162,  4.780862733117296E-01, -3.007925285720398E+00, -6.899746961878756E-03,  8.979247159885273E-03,  2.880597875847960E-03,  2.911269983977451E-03,
2471320.500000000, A.D. 2054-Feb-22 00:00:00.0000,      69.185260,  5.229178810125610E-01, -2.993129128228588E+00,  7.656880554883628E-03,  8.952973486395645E-03,  3.037922431415761E-03,  2.911253860992538E-03,
2471325.500000000, A.D. 2054-Feb-27 00:00:00.0000,      69.185348,  5.676117600436326E-01, -2.977545521661854E+00,  2.221151101802453E-02,  8.924150943097852E-03,  3.195570791591115E-03,  2.910469360737396E-03,
2471330.500000000, A.D. 2054-Mar-04 00:00:00.0000,      69.185427,  6.121550950679439E-01, -2.961172948766524E+00,  3.676027553559724E-02,  8.892751185171622E-03,  3.353502036724047E-03,  2.908905685592757E-03,
2471335.500000000, A.D. 2054-Mar-09 00:00:00.0000,      69.185496,  6.565349298128916E-01, -2.944010100083292E+00,  5.129925130608334E-02,  8.858746189861178E-03,  3.511673965232259E-03,  2.906552071216298E-03,
